COMMENT,ORIGINATOR,NORAD_CAT_ID,OBJECT_NAME,OBJECT_TYPE,CLASSIFICATION_TYPE,INTLDES,EPOCH,EPOCH_MICROSECONDS,MEAN_MOTION,ECCENTRICITY,INCLINATION,RA_OF_ASC_NODE,ARG_OF_PERICENTER,MEAN_ANOMALY,EPHEMERIS_TYPE,ELEMENT_SET_NO,REV_AT_EPOCH,BSTAR,MEAN_MOTION_DOT,MEAN_MOTION_DDOT,FILE,TLE_LINE0,TLE_LINE1,TLE_LINE2,OBJECT_ID,OBJECT_NUMBER,SEMIMAJOR_AXIS,PERIOD,APOGEE,PERIGEE
"GENERATED VIA SPACETRACK.ORG API","JSPOC","12977","COSMOS 1322","PAYLOAD","U","81116C","2016-01-13 20:00:43","407936","12.28686804","0.009348","73.9795","228.8434","325.5128","167.0509","0","999","53060","-7.572e-05","-2.4e-07","0","1980270","0 COSMOS 1322","1 12977U 81116C   16013.83383574 -.00000024 +00000-0 -75720-4 0  9998","2 12977 073.9795 228.8434 0093480 325.5128 167.0509 12.28686804530606","1981-116C","12977","7933.065","117.198","1629.088","1480.772"
"GENERATED VIA SPACETRACK.ORG API","JSPOC","36088","SJ-11-01","PAYLOAD","U","09061A","2016-01-13 20:00:45","925632","14.59772339","0.0012761","98.2122","63.0285","89.66","270.6054","0","999","32872","5.2763e-05","2.05e-06","0","1979915","0 SJ-11-01","1 36088U 09061A   16013.83386488  .00000205  00000-0  52763-4 0  9994","2 36088  98.2122  63.0285 0012761  89.6600 270.6054 14.59772339328727","2009-061A","36088","7072.046","98.645","702.935","684.886"
"GENERATED VIA SPACETRACK.ORG API","JSPOC","21029","COSMOS 2115","PAYLOAD","U","90114B","2016-01-13 20:01:06","707424","12.63454798","0.0003195","82.5697","129.7468","179.3506","274.3224","0","999","15584","0.00014606","3.7e-07","0","1979955","0 COSMOS 2115","1 21029U 90114B   16013.83410541  .00000037  00000-0  14606-3 0  9996","2 21029  82.5697 129.7468 0003195 179.3506 274.3224 12.63454798155845","1990-114B","21029","7786.854","113.973","1411.206","1406.231"
"GENERATED VIA SPACETRACK.ORG API","JSPOC","40554","GONETS M 13 (M23)","PAYLOAD","U","15020C","2016-01-13 20:01:21","957888","12.42884467","0.0013249","82.4846","243.1147","354.7724","5.3215","0","999","3580","0","1e-07","0","1979960","0 GONETS M 13 (M23)","1 40554U 15020C   16013.83428192  .00000010  00000-0  00000+0 0  9994","2 40554  82.4846 243.1147 0013249 354.7724   5.3215 12.42884467 35803","2015-020C","40554","7872.536","115.859","1504.831","1483.970"
"GENERATED VIA SPACETRACK.ORG API","JSPOC","39491","COSMOS 2494 (SKRL 756)","PAYLOAD","U","13078B","2016-01-13 20:01:23","587392","14.88944444","0.0021512","82.4203","318.1049","311.915","48.0244","0","999","11096","0.0001158","1.116e-05","0","1979957","0 COSMOS 2494 (SKRL 756)","1 39491U 13078B   16013.83430078  .00001116  00000-0  11580-3 0  9996","2 39491  82.4203 318.1049 0021512 311.9150  48.0244 14.88944444110963","2013-078B","39491","6979.369","96.712","616.248","586.220"
"GENERATED VIA SPACETRACK.ORG API","JSPOC","7594","SL-8 R/B","ROCKET BODY","U","74105B","2016-01-13 20:01:29","677728","13.78812818","0.0017003","82.9497","315.6698","22.4514","6.0011","0","999","6446","7.6569e-05","9.3e-07","0","1979910","0 SL-8 R/B","1 07594U 74105B   16013.83437127  .00000093  00000-0  76569-4 0  9997","2 07594  82.9497 315.6698 0017003  22.4514   6.0011 13.78812818 64468","1974-105B","7594","7346.237","104.437","980.593","955.611"
"GENERATED VIA SPACETRACK.ORG API","JSPOC","24946","IRIDIUM 33","PAYLOAD","U","97051C","2016-01-13 20:01:36","371136","14.33455605","0.0009458","86.3907","144.5414","129.7943","32.9346","0","999","95949","6.5491e-05","2.01e-06","0","1979879","0 IRIDIUM 33","1 24946U 97051C   16013.83444874  .00000201  00000-0  65491-4 0  9992","2 24946  86.3907 144.5414 0009458 129.7943  32.9346 14.33455605959493","1997-051C","24946","7158.340","100.456","786.975","773.434"
"GENERATED VIA SPACETRACK.ORG API","JSPOC","17590","SL-16 R/B","ROCKET BODY","U","87027B","2016-01-13 20:01:39","237024","14.1671395","0.0004901","71.0018","165.6799","350.0303","10.0723","0","999","49042","-6.0149e-05","-1.68e-06","0","1979884","0 SL-16 R/B","1 17590U 87027B   16013.83448191 -.00000168  00000-0 -60149-4 0  9996","2 17590  71.0018 165.6799 0004901 350.0303  10.0723 14.16713950490421","1987-027B","17590","7214.624","101.643","840.025","832.953"
"GENERATED VIA SPACETRACK.ORG API","JSPOC","17369","COSMOS 1818","PAYLOAD","U","87011A","2016-01-13 20:01:39","896256","14.31397846","0.0021647","65.0115","110.2071","276.068","215.3555","0","999","56415","1.9002e-05","-5e-07","0","1979903","0 COSMOS 1818","1 17369U 87011A   16013.83448954 -.00000050  00000-0  19002-4 0  9991","2 17369  65.0115 110.2071 0021647 276.0680 215.3555 14.31397846564150","1987-011A","17369","7165.199","100.600","802.574","771.553"
"GENERATED VIA SPACETRACK.ORG API","JSPOC","6148","COSMOS 514","PAYLOAD","U","72062A","2016-01-13 20:01:40","895040","13.81744567","0.0011313","82.9673","259.3199","97.8631","309.2476","0","999","18772","3.543e-05","5.4e-07","0","1980270","0 COSMOS 514","1  6148U 72062A   16013.83450110 +.00000054 +00000-0 +35430-4 0  9997","2  6148 082.9673 259.3199 0011313 097.8631 309.2476 13.81744567187729","1972-062A","6148","7335.842","104.216","966.006","949.408"
"GENERATED VIA SPACETRACK.ORG API","JSPOC","11541","COSMOS 1133","PAYLOAD","U","79084D","2016-01-13 20:01:42","7872","12.50830457","0.0028252","74.0266","318.0544","336.7831","52.1562","0","999","59169","9.5925e-05","-1e-08","0","1980270","0 COSMOS 1133","1 11541U 79084D   16013.83451398 -.00000001 +00000-0 +95925-4 0  9998","2 11541 074.0266 318.0544 0028252 336.7831 052.1562 12.50830457591690","1979-084D","11541","7839.160","115.123","1483.172","1438.878"
"GENERATED VIA SPACETRACK.ORG API","JSPOC","24726","COSMOS 2338","PAYLOAD","U","97006B","2016-01-13 20:01:52","937472","12.61332002","0.0006092","82.6003","161.6556","78.0472","282.1301","0","999","87056","7.0679e-06","1.2e-07","0","1980270","0 COSMOS 2338","1 24726U 97006B   16013.83464048 +.00000012 +00000-0 +70679-5 0  9998","2 24726 082.6003 161.6556 0006092 078.0472 282.1301 12.61332002870560","1997-006B","24726","7795.588","114.165","1422.202","1412.704"
"GENERATED VIA SPACETRACK.ORG API","JSPOC","39255","EPSILON R/B","ROCKET BODY","U","13049C","2016-01-13 20:01:56","129088","14.0094825","0.0114118","29.75","141.1065","282.9873","75.7992","0","999","11947","3.2198e-05","1.25e-06","0","1980040","0 EPSILON R/B","1 39255U 13049C   16013.83467742  .00000125  00000-0  32198-4 0  9998","2 39255  29.7500 141.1065 0114118 282.9873  75.7992 14.00948250119476","2013-049C","39255","7268.650","102.787","973.463","807.566"
"GENERATED VIA SPACETRACK.ORG API","JSPOC","39255","EPSILON R/B","ROCKET BODY","U","13049C","2016-01-13 20:01:56","129088","14.0094825","0.0114118","29.75","141.1065","282.9873","75.7992","0","999","11937","3.2198e-05","1.25e-06","0","1980270","0 EPSILON R/B","1 39255U 13049C   16013.83467742 +.00000125 +00000-0 +32198-4 0  9998","2 39255 029.7500 141.1065 0114118 282.9873 075.7992 14.00948250119375","2013-049C","39255","7268.650","102.787","973.463","807.566"
"GENERATED VIA SPACETRACK.ORG API","JSPOC","28220","TANSUO 1","PAYLOAD","U","04012A","2016-01-13 20:01:57","653184","14.9822342","0.0012426","97.628","332.8732","93.8173","266.4471","0","999","63848","0.00022282","2.592e-05","0","1979968","0 TANSUO 1","1 28220U 04012A   16013.83469506  .00002592  00000-0  22282-3 0  9990","2 28220  97.6280 332.8732 0012426  93.8173 266.4471 14.98223420638486","2004-012A","28220","6950.522","96.113","581.024","563.750"
"GENERATED VIA SPACETRACK.ORG API","JSPOC","35933","BEESAT","PAYLOAD","U","09051C","2016-01-13 20:01:58","917216","14.55838123","0.0006877","98.4306","140.2862","70.3148","289.879","0","999","33462","0.00011883","4.74e-06","0","1980270","0 BEESAT","1 35933U 09051C   16013.83470969 +.00000474 +00000-0 +11883-3 0  9994","2 35933 098.4306 140.2862 0006877 070.3148 289.8790 14.55838123334620","2009-051C","35933","7084.781","98.912","711.518","701.774"
"GENERATED VIA SPACETRACK.ORG API","JSPOC","32784","CANX-6","PAYLOAD","U","08021B","2016-01-13 20:02:00","613248","14.85999988","0.0015994","97.623","51.3245","94.8964","265.4079","0","999","41733","9.3103e-05","7.64e-06","0","1979912","0 CANX-6","1 32784U 08021B   16013.83472932  .00000764  00000-0  93103-4 0  9991","2 32784  97.6230  51.3245 0015994  94.8964 265.4079 14.85999988417332","2008-021B","32784","6988.585","96.904","621.628","599.273"
"GENERATED VIA SPACETRACK.ORG API","JSPOC","39239","YAOGAN 17A","PAYLOAD","U","13046A","2016-01-13 20:02:17","563200","13.45147042","0.0085309","63.4107","160.9063","3.3916","356.7672","0","999","11621","0","-9e-07","0","1979893","0 YAOGAN 17A","1 39239U 13046A   16013.83492550 -.00000090  00000-0  00000+0 0  9996","2 39239  63.4107 160.9063 0085309   3.3916 356.7672 13.45147042116219","2013-046A","39239","7468.304","107.051","1153.880","1026.457"
"GENERATED VIA SPACETRACK.ORG API","JSPOC","39241","YAOGAN 17C","PAYLOAD","U","13046C","2016-01-13 20:02:19","173696","13.45146503","0.0085938","63.4114","160.0549","3.1198","357.0351","0","999","11623","0","-9e-07","0","1979892","0 YAOGAN 17C","1 39241U 13046C   16013.83494414 -.00000090  00000-0  00000+0 0  9990","2 39241  63.4114 160.0549 0085938   3.1198 357.0351 13.45146503116239","2013-046C","39241","7468.306","107.051","1154.352","1025.990"
"GENERATED VIA SPACETRACK.ORG API","JSPOC","27465","COSMOS 2391","PAYLOAD","U","02036B","2016-01-13 20:02:19","343904","12.44870266","0.0025174","82.4802","203.4911","305.5185","54.3549","0","999","61434","3.1552e-05","1.4e-07","0","1979917","0 COSMOS 2391","1 27465U 02036B   16013.83494611  .00000014  00000-0  31552-4 0  9997","2 27465  82.4802 203.4911 0025174 305.5185  54.3549 12.44870266614344","2002-036B","27465","7864.161","115.674","1505.824","1466.229"
